1 40035U 14033AB  20233.76046122  .00000522  00000-0  59531-4 0  9997
2 40035  97.9454 164.2579 0013220  74.2373 286.0302 14.90316945334801
1 40035U 14033AB  20234.09616624  .00000512  00000-0  58537-4 0  9998
2 40035  97.9454 164.5955 0013218  73.2685 286.9982 14.90317228335331
1 40035U 14033AB  20234.56615317  .00000469  00000-0  54159-4 0  9995
2 40035  97.9454 165.0681 0013209  71.9097 288.3558 14.90317476334929
1 40035U 14033AB  20234.76757602  .00000464  00000-0  53641-4 0  9991
2 40035  97.9454 165.2707 0013203  71.3125 288.9524 14.90317701334953
1 40035U 14033AB  20235.37184450  .00000425  00000-0  49601-4 0  9992
2 40035  97.9454 165.8784 0013201  69.6012 290.6622 14.90318209335524
1 40035U 14033AB  20235.77468994  .00000413  00000-0  48361-4 0  9993
2 40035  97.9454 166.2835 0013195  68.4252 291.8370 14.90318643335100
1 40035U 14033AB  20236.31181691  .00000417  00000-0  48779-4 0  9997
2 40035  97.9455 166.8236 0013195  66.8768 293.3839 14.90319386335186
1 40035U 14033AB  20236.78180301  .00000385  00000-0  45524-4 0  9994
2 40035  97.9455 167.2962 0013193  65.5094 294.7497 14.90319762335737
1 40035U 14033AB  20237.52035239  .00000367  00000-0  43636-4 0  9998
2 40035  97.9455 168.0390 0013194  63.4031 296.8537 14.90320467335361
1 40035U 14033AB  20237.78891562  .00000368  00000-0  43720-4 0  9990
2 40035  97.9455 168.3090 0013186  62.5854 297.6703 14.90320783335887
1 40035U 14033AB  20237.85605642  .00000369  00000-0  43866-4 0  9992
2 40035  97.9455 168.3766 0013184  62.3924 297.8631 14.90320869335417
1 40035U 14033AB  20238.39318292  .00000362  00000-0  43122-4 0  9992
2 40035  97.9455 168.9167 0013180  60.8592 299.3943 14.90321353335498
1 40035U 14033AB  20238.79602759  .00000386  00000-0  45571-4 0  9996
2 40035  97.9455 169.3218 0013167  59.6524 300.5994 14.90321869336030
1 40035U 14033AB  20238.86316836  .00000378  00000-0  44788-4 0  9992
2 40035  97.9456 169.3894 0013162  59.4514 300.8001 14.90321890335566
1 40035U 14033AB  20239.40029461  .00000377  00000-0  44647-4 0  9991
2 40035  97.9456 169.9295 0013148  57.8793 302.3698 14.90322294335649
1 40035U 14033AB  20239.80313922  .00000386  00000-0  45547-4 0  9993
2 40035  97.9456 170.3347 0013136  56.6950 303.5524 14.90322617336182
1 40035U 14033AB  20240.81024987  .00000487  00000-0  55998-4 0  9999
2 40035  97.9456 171.3474 0013087  53.6833 306.5591 14.90323902335854
1 40035U 14033AB  20240.81024987  .00000487  00000-0  55998-4 0  9999
2 40035  97.9456 171.3474 0013087  53.6833 306.5591 14.90323902336338
1 40035U 14033AB  20241.34737554  .00000486  00000-0  55899-4 0  9998
2 40035  97.9456 171.8876 0013052  52.0531 308.1863 14.90324181335934
1 40035U 14033AB  20241.75021947  .00000506  00000-0  57897-4 0  9998
2 40035  97.9456 172.2927 0013029  50.8198 309.4174 14.90324572335994
1 40035U 14033AB  20242.35448491  .00000603  00000-0  67840-4 0  9999
2 40035  97.9456 172.9004 0012991  49.0374 311.1966 14.90325626336564
1 40035U 14033AB  20242.75732844  .00000595  00000-0  67027-4 0  9998
2 40035  97.9455 173.3055 0012967  47.8191 312.4125 14.90325959336144
1 40035U 14033AB  20243.36159345  .00000611  00000-0  68719-4 0  9993
2 40035  97.9456 173.9132 0012932  46.0344 314.1937 14.90326676336710
1 40035U 14033AB  20243.76443657  .00000587  00000-0  66258-4 0  9997
2 40035  97.9456 174.3183 0012910  44.8191 315.4067 14.90327021336299
1 40035U 14033AB  20244.36870080  .00000591  00000-0  66690-4 0  9993
2 40035  97.9456 174.9260 0012876  43.0644 317.1579 14.90327869336866
1 40035U 14033AB  20244.57012208  .00000591  00000-0  66678-4 0  9992
2 40035  97.9456 175.1286 0012864  42.4651 317.7559 14.90328156336410
1 40035U 14033AB  20244.77154338  .00000580  00000-0  65505-4 0  9991
2 40035  97.9456 175.3311 0012855  41.8639 318.3559 14.90328400336442
1 40035U 14033AB  20245.30866664  .00000573  00000-0  64768-4 0  9995
2 40035  97.9457 175.8713 0012826  40.3100 319.9066 14.90329173336526
1 40035U 14033AB  20245.77864925  .00000545  00000-0  61968-4 0  9992
2 40035  97.9457 176.3439 0012805  38.9171 321.2966 14.90329739337079
1 40035U 14033AB  20246.31577202  .00000513  00000-0  58649-4 0  9999
2 40035  97.9457 176.8841 0012780  37.3828 322.8276 14.90330395336671
1 40035U 14033AB  20246.78575415  .00000503  00000-0  57581-4 0  9997
2 40035  97.9457 177.3568 0012755  35.9797 324.2276 14.90331054337225
1 40035U 14033AB  20247.39001686  .00000469  00000-0  54118-4 0  9993
2 40035  97.9458 177.9645 0012728  34.2233 325.9802 14.90331715336838
1 40035U 14033AB  20247.79285855  .00000446  00000-0  51783-4 0  9999
2 40035  97.9458 178.3696 0012707  33.0283 327.1726 14.90332108337374
1 40035U 14033AB  20248.32998061  .00000445  00000-0  51682-4 0  9996
2 40035  97.9459 178.9098 0012682  31.4733 328.7241 14.90332772336972
1 40035U 14033AB  20248.79996214  .00000459  00000-0  53093-4 0  9998
2 40035  97.9460 179.3825 0012650  29.9911 330.2028 14.90333387337528
1 40035U 14033AB  20249.40422398  .00000486  00000-0  55844-4 0  9990
2 40035  97.9460 179.9902 0012609  28.1453 332.0444 14.90334157337131
1 40035U 14033AB  20249.80706496  .00000504  00000-0  57731-4 0  9996
2 40035  97.9460 180.3953 0012579  26.8361 333.3504 14.90334672337674
1 40035U 14033AB  20250.07562559  .00000509  00000-0  58209-4 0  9993
2 40035  97.9461 180.6654 0012561  26.0081 334.1765 14.90334946337232
1 40035U 14033AB  20250.81416710  .00000534  00000-0  60743-4 0  9996
2 40035  97.9460 181.4082 0012502  23.6639 336.5151 14.90335734337345
1 40035U 14033AB  20251.08272751  .00000548  00000-0  62200-4 0  9996
2 40035  97.9461 181.6783 0012485  22.8352 337.3418 14.90336052337865
1 40035U 14033AB  20251.55270820  .00000546  00000-0  62005-4 0  9994
2 40035  97.9461 182.1510 0012443  21.3207 338.8526 14.90336423337459
1 40035U 14033AB  20251.75412835  .00000551  00000-0  62561-4 0  9993
2 40035  97.9461 182.3535 0012427  20.6554 339.5164 14.90336676337486
1 40035U 14033AB  20252.08982854  .00000563  00000-0  63763-4 0  9991
2 40035  97.9461 182.6912 0012399  19.6021 340.5671 14.90337083338011
1 40035U 14033AB  20252.55980861  .00000575  00000-0  65015-4 0  9994
2 40035  97.9460 183.1638 0012359  18.1273 342.0382 14.90337669337600
1 40035U 14033AB  20252.76122857  .00000572  00000-0  64679-4 0  9992
2 40035  97.9460 183.3663 0012341  17.4663 342.6976 14.90337910337633
1 40035U 14033AB  20253.70118807  .00000527  00000-0  60046-4 0  9991
2 40035  97.9460 184.3117 0012260  14.4975 345.6591 14.90338836337770
1 40035U 14033AB  20253.76832802  .00000516  00000-0  58922-4 0  9993
2 40035  97.9461 184.3792 0012254  14.2854 345.8707 14.90338864337780
1 40035U 14033AB  20254.37258719  .00000489  00000-0  56129-4 0  9996
2 40035  97.9461 184.9869 0012203  12.4532 347.6985 14.90339572338357
1 40035U 14033AB  20254.77542658  .00000461  00000-0  53257-4 0  9997
2 40035  97.9461 185.3921 0012171  11.2307 348.9180 14.90339964337931
1 40035U 14033AB  20255.37968537  .00000426  00000-0  49688-4 0  9996
2 40035  97.9462 185.9998 0012120   9.4034 350.7408 14.90340612338502
1 40035U 14033AB  20256.52106278  .00000365  00000-0  43421-4 0  9991
2 40035  97.9463 187.1478 0012024   5.9452 354.1906 14.90341645338191
1 40035U 14033AB  20256.78962223  .00000335  00000-0  40390-4 0  9998
2 40035  97.9463 187.4179 0012005   5.1268 355.0070 14.90341740338714
1 40035U 14033AB  20257.05818149  .00000336  00000-0  40449-4 0  9992
2 40035  97.9463 187.6880 0011981   4.3116 355.8202 14.90342015338272
1 40035U 14033AB  20257.79671947  .00000335  00000-0  40310-4 0  9992
2 40035  97.9464 188.4308 0011922   1.9738 358.1525 14.90342659338868
1 40035U 14033AB  20257.86385924  .00000338  00000-0  40682-4 0  9992
2 40035  97.9464 188.4983 0011915   1.7274 358.3982 14.90342735338394
1 40035U 14033AB  20258.53525701  .00000391  00000-0  46082-4 0  9995
2 40035  97.9465 189.1736 0011860 359.6051   0.5155 14.90343540338490
1 40035U 14033AB  20258.80381619  .00000385  00000-0  45480-4 0  9997
2 40035  97.9465 189.4437 0011840 358.7402   1.3783 14.90343676339014
1 40035U 14033AB  20259.34093420  .00000431  00000-0  50231-4 0  9999
2 40035  97.9466 189.9839 0011789 357.0113   3.1032 14.90344276338618
1 40035U 14033AB  20259.87805214  .00000447  00000-0  51851-4 0  9995
2 40035  97.9466 190.5241 0011745 355.2417   4.8686 14.90344663338693
1 40035U 14033AB  20259.87805214  .00000447  00000-0  51851-4 0  9995
2 40035  97.9466 190.5241 0011745 355.2417   4.8686 14.90344663339177
1 40035U 14033AB  20260.54944925  .00000495  00000-0  56783-4 0  9996
2 40035  97.9466 191.1995 0011678 352.9822   7.1230 14.90345288338791
1 40035U 14033AB  20260.75086835  .00000496  00000-0  56876-4 0  9990
2 40035  97.9466 191.4020 0011664 352.3388   7.7649 14.90345438338820
1 40035U 14033AB  20261.08656676  .00000496  00000-0  56859-4 0  9994
2 40035  97.9467 191.7397 0011635 351.2325   8.8688 14.90345656339354
1 40035U 14033AB  20261.35512545  .00000497  00000-0  57040-4 0  9994
2 40035  97.9467 192.0098 0011611 350.3086   9.7906 14.90345852338916
1 40035U 14033AB  20261.75796326  .00000511  00000-0  58390-4 0  9995
2 40035  97.9467 192.4150 0011578 348.9356  11.1605 14.90346262338979
1 40035U 14033AB  20262.36221974  .00000514  00000-0  58772-4 0  9992
2 40035  97.9467 193.0228 0011519 346.9219  13.1698 14.90346868339543
1 40035U 14033AB  20262.56363852  .00000505  00000-0  57796-4 0  9991
2 40035  97.9467 193.2254 0011502 346.2433  13.8470 14.90347007339098
1 40035U 14033AB  20263.36931307  .00000473  00000-0  54480-4 0  9997
2 40035  97.9468 194.0358 0011427 343.5424  16.5421 14.90347845339691
1 40035U 14033AB  20263.77215019  .00000458  00000-0  52983-4 0  9996
2 40035  97.9468 194.4410 0011394 342.1766  17.9051 14.90348281339274
1 40035U 14033AB  20264.37640572  .00000418  00000-0  48898-4 0  9995
2 40035  97.9469 195.0488 0011335 340.1865  19.8910 14.90348848339847
1 40035U 14033AB  20264.84638203  .00000392  00000-0  46164-4 0  9990
2 40035  97.9469 195.5215 0011291 338.6002  21.4742 14.90349316339434
